M2 PATHFINDER           
1 45727U 20037E   26032.95329467  .00002932  00000+0  21718-3 0  9992
2 45727  97.8122 222.6933 0010809 248.7800 111.2271 15.03902233305168
NETSAT-4                
1 46504U 20068U   26032.97412123  .00016272  00000+0  42506-3 0  9994
2 46504  97.8615  30.8520 0008532  85.7353 274.4866 15.38841056294940
NETSAT-3                
1 46505U 20068V   26032.93300765  .00017706  00000+0  48341-3 0  9995
2 46505  97.8647  29.2286 0008312  97.6875 262.5312 15.37458444294863
NETSAT-1                
1 46506U 20068W   26032.94331210  .00013310  00000+0  44933-3 0  9996
2 46506  97.8706  25.0408 0007797 112.2958 247.9109 15.30796398294588
NETSAT-2                
1 46507U 20068X   26032.95137893  .00020489  00000+0  51946-3 0  9996
2 46507  97.8629  30.3657 0006969 106.6613 253.5397 15.39717853294886
WILDTRACKCUBE-SIMBA     
1 47941U 21022K   26032.71702384  .00222913  00000+0  10076-2 0  9991
2 47941  97.4006 311.6495 0008146 122.7801 237.4255 15.83354813270101
GREENCUBE (IO-117)      
1 53109U 22080E   26032.31368699 -.00000003  00000+0  00000+0 0  9990
2 53109  70.1637 345.4938 0009147 318.2383  41.7578  6.42583138 83338
SITRO-AIS 5 (KATYS)     
1 57176U 23091L   26032.95538198  .00011499  00000+0  44877-3 0  9998
2 57176  97.5260  95.7767 0011506 214.6274 145.4216 15.26018029143697
SITRO-AIS 6 (CHIRKIN)   
1 57192U 23091AC  26032.93256376  .00005914  00000+0  24796-3 0  9992
2 57192  97.5264  95.4804 0011595 213.8436 146.2062 15.23835794143676
SITRO-AIS 8 (ANOKHIN)   
1 57193U 23091AD  26032.98886477  .00013864  00000+0  50702-3 0  9998
2 57193  97.5254  96.9097 0010839 211.6740 148.3848 15.28133171143771
SITRO-AIS 7 (FARTUSHNIY)
1 57194U 23091AE  26032.97740880  .00005941  00000+0  25066-3 0  9997
2 57194  97.5263  95.4092 0011340 214.9826 145.0667 15.23624000143673
SITRO-AIS 10 (BURDAEV)  
1 57199U 23091AK  26032.93918198  .00019141  00000+0  59889-3 0  9994
2 57199  97.5269 100.6840 0007480 187.2731 172.8404 15.33148296144005
SITRO-AIS 9 (SHCHUKIN)  
1 57201U 23091AM  26032.99432220  .00018460  00000+0  58402-3 0  9994
2 57201  97.5268 100.5596 0007502 187.7548 172.3579 15.32800973144005
SITRO-AIS 12 (SMIRENNIY)
1 57204U 23091AQ  26032.94308060  .00018996  00000+0  59641-3 0  9996
2 57204  97.5277 100.8979 0007491 180.9694 179.1535 15.33040026144014
SITRO-AIS 11 (SHEFFER)  
1 57208U 23091AU  26032.92381736  .00018728  00000+0  58229-3 0  9993
2 57208  97.5275 101.0513 0007405 180.6214 179.5020 15.33354944144024
SITRO-AIS 25            
1 59066U 24039R   26032.98450089  .00004928  00000+0  39048-3 0  9999
2 59066  95.3960 142.2384 0149845  80.6737 281.1396 14.92281784104557
