[{"OBJECT_NAME":"M2 PATHFINDER","OBJECT_ID":"2020-037E","EPOCH":"2026-02-01T22:52:44.659488","MEAN_MOTION":15.03902233,"ECCENTRICITY":0.00108098,"INCLINATION":97.8122,"RA_OF_ASC_NODE":222.6933,"ARG_OF_PERICENTER":248.78,"MEAN_ANOMALY":111.2271,"EPHEMERIS_TYPE":0,"CLASSIFICATION_TYPE":"U","NORAD_CAT_ID":45727,"ELEMENT_SET_NO":999,"REV_AT_EPOCH":30516,"BSTAR":0.00021718126,"MEAN_MOTION_DOT":2.932e-5,"MEAN_MOTION_DDOT":0},{"OBJECT_NAME":"NETSAT-4","OBJECT_ID":"2020-068U","EPOCH":"2026-02-01T23:22:44.074272","MEAN_MOTION":15.38841056,"ECCENTRICITY":0.00085321,"INCLINATION":97.8615,"RA_OF_ASC_NODE":30.852,"ARG_OF_PERICENTER":85.7353,"MEAN_ANOMALY":274.4866,"EPHEMERIS_TYPE":0,"CLASSIFICATION_TYPE":"U","NORAD_CAT_ID":46504,"ELEMENT_SET_NO":999,"REV_AT_EPOCH":29494,"BSTAR":0.00042506396,"MEAN_MOTION_DOT":0.00016272,"MEAN_MOTION_DDOT":0},{"OBJECT_NAME":"NETSAT-3","OBJECT_ID":"2020-068V","EPOCH":"2026-02-01T22:23:31.860960","MEAN_MOTION":15.37458444,"ECCENTRICITY":0.00083123,"INCLINATION":97.8647,"RA_OF_ASC_NODE":29.2286,"ARG_OF_PERICENTER":97.6875,"MEAN_ANOMALY":262.5312,"EPHEMERIS_TYPE":0,"CLASSIFICATION_TYPE":"U","NORAD_CAT_ID":46505,"ELEMENT_SET_NO":999,"REV_AT_EPOCH":29486,"BSTAR":0.0004834057,"MEAN_MOTION_DOT":0.00017706,"MEAN_MOTION_DDOT":0},{"OBJECT_NAME":"NETSAT-1","OBJECT_ID":"2020-068W","EPOCH":"2026-02-01T22:38:22.165440","MEAN_MOTION":15.30796398,"ECCENTRICITY":0.00077971,"INCLINATION":97.8706,"RA_OF_ASC_NODE":25.0408,"ARG_OF_PERICENTER":112.2958,"MEAN_ANOMALY":247.9109,"EPHEMERIS_TYPE":0,"CLASSIFICATION_TYPE":"U","NORAD_CAT_ID":46506,"ELEMENT_SET_NO":999,"REV_AT_EPOCH":29458,"BSTAR":0.0004493318,"MEAN_MOTION_DOT":0.0001331,"MEAN_MOTION_DDOT":0},{"OBJECT_NAME":"NETSAT-2","OBJECT_ID":"2020-068X","EPOCH":"2026-02-01T22:49:59.139552","MEAN_MOTION":15.39717853,"ECCENTRICITY":0.00069692,"INCLINATION":97.8629,"RA_OF_ASC_NODE":30.3657,"ARG_OF_PERICENTER":106.6613,"MEAN_ANOMALY":253.5397,"EPHEMERIS_TYPE":0,"CLASSIFICATION_TYPE":"U","NORAD_CAT_ID":46507,"ELEMENT_SET_NO":999,"REV_AT_EPOCH":29488,"BSTAR":0.00051945837,"MEAN_MOTION_DOT":0.00020489,"MEAN_MOTION_DDOT":0},{"OBJECT_NAME":"WILDTRACKCUBE-SIMBA","OBJECT_ID":"2021-022K","EPOCH":"2026-02-01T17:12:30.859776","MEAN_MOTION":15.83354813,"ECCENTRICITY":0.00081462,"INCLINATION":97.4006,"RA_OF_ASC_NODE":311.6495,"ARG_OF_PERICENTER":122.7801,"MEAN_ANOMALY":237.4255,"EPHEMERIS_TYPE":0,"CLASSIFICATION_TYPE":"U","NORAD_CAT_ID":47941,"ELEMENT_SET_NO":999,"REV_AT_EPOCH":27010,"BSTAR":0.0010075518,"MEAN_MOTION_DOT":0.00222913,"MEAN_MOTION_DDOT":0},{"OBJECT_NAME":"GREENCUBE (IO-117)","OBJECT_ID":"2022-080E","EPOCH":"2026-02-01T07:31:42.555936","MEAN_MOTION":6.42583138,"ECCENTRICITY":0.00091479,"INCLINATION":70.1637,"RA_OF_ASC_NODE":345.4938,"ARG_OF_PERICENTER":318.2383,"MEAN_ANOMALY":41.7578,"EPHEMERIS_TYPE":0,"CLASSIFICATION_TYPE":"U","NORAD_CAT_ID":53109,"ELEMENT_SET_NO":999,"REV_AT_EPOCH":8333,"BSTAR":0,"MEAN_MOTION_DOT":-3.0e-8,"MEAN_MOTION_DDOT":0},{"OBJECT_NAME":"SITRO-AIS 5 (KATYS)","OBJECT_ID":"2023-091L","EPOCH":"2026-02-01T22:55:45.003072","MEAN_MOTION":15.26018029,"ECCENTRICITY":0.00115067,"INCLINATION":97.526,"RA_OF_ASC_NODE":95.7767,"ARG_OF_PERICENTER":214.6274,"MEAN_ANOMALY":145.4216,"EPHEMERIS_TYPE":0,"CLASSIFICATION_TYPE":"U","NORAD_CAT_ID":57176,"ELEMENT_SET_NO":999,"REV_AT_EPOCH":14369,"BSTAR":0.00044877208,"MEAN_MOTION_DOT":0.00011499,"MEAN_MOTION_DDOT":0},{"OBJECT_NAME":"SITRO-AIS 6 (CHIRKIN)","OBJECT_ID":"2023-091AC","EPOCH":"2026-02-01T22:22:53.508864","MEAN_MOTION":15.23835794,"ECCENTRICITY":0.00115959,"INCLINATION":97.5264,"RA_OF_ASC_NODE":95.4804,"ARG_OF_PERICENTER":213.8436,"MEAN_ANOMALY":146.2062,"EPHEMERIS_TYPE":0,"CLASSIFICATION_TYPE":"U","NORAD_CAT_ID":57192,"ELEMENT_SET_NO":999,"REV_AT_EPOCH":14367,"BSTAR":0.00024795647,"MEAN_MOTION_DOT":5.914e-5,"MEAN_MOTION_DDOT":0},{"OBJECT_NAME":"SITRO-AIS 8 (ANOKHIN)","OBJECT_ID":"2023-091AD","EPOCH":"2026-02-01T23:43:57.916128","MEAN_MOTION":15.28133171,"ECCENTRICITY":0.00108395,"INCLINATION":97.5254,"RA_OF_ASC_NODE":96.9097,"ARG_OF_PERICENTER":211.674,"MEAN_ANOMALY":148.3848,"EPHEMERIS_TYPE":0,"CLASSIFICATION_TYPE":"U","NORAD_CAT_ID":57193,"ELEMENT_SET_NO":999,"REV_AT_EPOCH":14377,"BSTAR":0.00050701832,"MEAN_MOTION_DOT":0.00013864,"MEAN_MOTION_DDOT":0},{"OBJECT_NAME":"SITRO-AIS 7 (FARTUSHNIY)","OBJECT_ID":"2023-091AE","EPOCH":"2026-02-01T23:27:28.120320","MEAN_MOTION":15.23624,"ECCENTRICITY":0.00113404,"INCLINATION":97.5263,"RA_OF_ASC_NODE":95.4092,"ARG_OF_PERICENTER":214.9826,"MEAN_ANOMALY":145.0667,"EPHEMERIS_TYPE":0,"CLASSIFICATION_TYPE":"U","NORAD_CAT_ID":57194,"ELEMENT_SET_NO":999,"REV_AT_EPOCH":14367,"BSTAR":0.00025066357,"MEAN_MOTION_DOT":5.941e-5,"MEAN_MOTION_DDOT":0},{"OBJECT_NAME":"SITRO-AIS 10 (BURDAEV)","OBJECT_ID":"2023-091AK","EPOCH":"2026-02-01T22:32:25.323072","MEAN_MOTION":15.33148296,"ECCENTRICITY":0.00074801,"INCLINATION":97.5269,"RA_OF_ASC_NODE":100.684,"ARG_OF_PERICENTER":187.2731,"MEAN_ANOMALY":172.8404,"EPHEMERIS_TYPE":0,"CLASSIFICATION_TYPE":"U","NORAD_CAT_ID":57199,"ELEMENT_SET_NO":999,"REV_AT_EPOCH":14400,"BSTAR":0.0005988947,"MEAN_MOTION_DOT":0.00019141,"MEAN_MOTION_DDOT":0},{"OBJECT_NAME":"SITRO-AIS 9 (SHCHUKIN)","OBJECT_ID":"2023-091AM","EPOCH":"2026-02-01T23:51:49.438080","MEAN_MOTION":15.32800973,"ECCENTRICITY":0.00075022,"INCLINATION":97.5268,"RA_OF_ASC_NODE":100.5596,"ARG_OF_PERICENTER":187.7548,"MEAN_ANOMALY":172.3579,"EPHEMERIS_TYPE":0,"CLASSIFICATION_TYPE":"U","NORAD_CAT_ID":57201,"ELEMENT_SET_NO":999,"REV_AT_EPOCH":14400,"BSTAR":0.00058401653,"MEAN_MOTION_DOT":0.0001846,"MEAN_MOTION_DDOT":0},{"OBJECT_NAME":"SITRO-AIS 12 (SMIRENNIY)","OBJECT_ID":"2023-091AQ","EPOCH":"2026-02-01T22:38:02.163840","MEAN_MOTION":15.33040026,"ECCENTRICITY":0.00074912,"INCLINATION":97.5277,"RA_OF_ASC_NODE":100.8979,"ARG_OF_PERICENTER":180.9694,"MEAN_ANOMALY":179.1535,"EPHEMERIS_TYPE":0,"CLASSIFICATION_TYPE":"U","NORAD_CAT_ID":57204,"ELEMENT_SET_NO":999,"REV_AT_EPOCH":14401,"BSTAR":0.00059640887,"MEAN_MOTION_DOT":0.00018996,"MEAN_MOTION_DDOT":0},{"OBJECT_NAME":"SITRO-AIS 11 (SHEFFER)","OBJECT_ID":"2023-091AU","EPOCH":"2026-02-01T22:10:17.819904","MEAN_MOTION":15.33354944,"ECCENTRICITY":0.00074056,"INCLINATION":97.5275,"RA_OF_ASC_NODE":101.0513,"ARG_OF_PERICENTER":180.6214,"MEAN_ANOMALY":179.502,"EPHEMERIS_TYPE":0,"CLASSIFICATION_TYPE":"U","NORAD_CAT_ID":57208,"ELEMENT_SET_NO":999,"REV_AT_EPOCH":14402,"BSTAR":0.00058228905,"MEAN_MOTION_DOT":0.00018728,"MEAN_MOTION_DDOT":0},{"OBJECT_NAME":"SITRO-AIS 25","OBJECT_ID":"2024-039R","EPOCH":"2026-02-01T23:37:40.876896","MEAN_MOTION":14.92281784,"ECCENTRICITY":0.01498451,"INCLINATION":95.396,"RA_OF_ASC_NODE":142.2384,"ARG_OF_PERICENTER":80.6737,"MEAN_ANOMALY":281.1396,"EPHEMERIS_TYPE":0,"CLASSIFICATION_TYPE":"U","NORAD_CAT_ID":59066,"ELEMENT_SET_NO":999,"REV_AT_EPOCH":10455,"BSTAR":0.00039048409,"MEAN_MOTION_DOT":4.928e-5,"MEAN_MOTION_DDOT":0}]
